SL-16 R/B               
1 22566U 93016B   26027.15099005  .00000380  00000+0  21939-3 0  9993
2 22566  71.0087 302.4280 0009426  14.5185 345.6206 14.15299501696295
COSMOS 2242             
1 22626U 93024A   26027.24581048  .00004174  00000+0  36541-3 0  9992
2 22626  82.5206 306.3490 0018077  84.5684 275.7600 14.96357359774193
SL-16 R/B               
1 22803U 93059B   26027.32795429 -.00000140  00000+0 -45170-4 0  9996
2 22803  70.9903  98.3547 0019576 272.8200  87.0683 14.17223475673677
ARIANE 40 R/B           
1 22830U 93061H   26027.14912463  .00000415  00000+0  16792-3 0  9998
2 22830  98.5004  96.8382 0011499  51.6311 308.5904 14.32837296688152
COSMOS 2278             
1 23087U 94023A   26026.65829514 -.00000097  00000+0 -26156-4 0  9995
2 23087  71.0527 263.0357 0006286  93.3673 266.8169 14.14367025638865
SL-16 R/B               
1 23088U 94023B   26026.79452674 -.00000135  00000+0 -44969-4 0  9995
2 23088  71.0002 158.8705 0004202 323.7598  36.3240 14.15006637640160
SL-16 R/B               
1 23343U 94074B   26027.32233650  .00000880  00000+0  12474-3 0  9996
2 23343  97.7160  59.8062 0006674   9.1543   1.3884 14.79355206681137
SL-16 R/B               
1 23405U 94077B   26027.28715313 -.00000159  00000+0 -56829-4 0  9998
2 23405  70.9826  79.5947 0004790 249.4062 110.6548 14.15558661610370
ARIANE 40+ R/B          
1 23561U 95021B   26027.18803748  .00000558  00000+0  19202-3 0  9994
2 23561  98.4579  99.2150 0005631 264.6738 154.1221 14.39739594613277
SL-16 R/B               
1 23705U 95058B   26027.08009273 -.00000149  00000+0 -51670-4 0  9998
2 23705  71.0199 267.6148 0013005 193.1139 166.9648 14.15488115561961
SL-16 R/B               
1 24298U 96051B   26027.09800816  .00000069  00000+0  63897-4 0  9996
2 24298  70.7574 263.2758 0018371 205.0709 154.9521 14.12403915515775
ORBVIEW 2 (SEASTAR)     
1 24883U 97037A   26027.29318539  .00000618  00000+0  23120-3 0  9993
2 24883  98.8497 190.5249 0002442 159.1491 200.9794 14.35460568502532
