CCSDS_OMM_VERS = 2.0
CREATION_DATE  = 
ORIGINATOR     = 

OBJECT_NAME    = SL-16 R/B
OBJECT_ID      = 1993-016B
CENTER_NAME    = EARTH
REF_FRAME      = TEME
TIME_SYSTEM    = UTC
MEAN_ELEMENT_THEORY = SGP/SGP4

EPOCH          = 2026-01-27T03:37:25.540320
MEAN_MOTION    = 14.15299501
ECCENTRICITY   = .00094268
INCLINATION    = 71.0087
RA_OF_ASC_NODE = 302.4280
ARG_OF_PERICENTER = 14.5185
MEAN_ANOMALY   = 345.6206

EPHEMERIS_TYPE = 0
CLASSIFICATION_TYPE = U
NORAD_CAT_ID   = 22566
ELEMENT_SET_NO = 999
REV_AT_EPOCH   = 69629
BSTAR          = .21938669E-3
MEAN_MOTION_DOT = .38E-5
MEAN_MOTION_DDOT = 0

CCSDS_OMM_VERS = 2.0
CREATION_DATE  = 
ORIGINATOR     = 

OBJECT_NAME    = COSMOS 2242
OBJECT_ID      = 1993-024A
CENTER_NAME    = EARTH
REF_FRAME      = TEME
TIME_SYSTEM    = UTC
MEAN_ELEMENT_THEORY = SGP/SGP4

EPOCH          = 2026-01-27T05:53:58.025472
MEAN_MOTION    = 14.96357359
ECCENTRICITY   = .00180775
INCLINATION    = 82.5206
RA_OF_ASC_NODE = 306.3490
ARG_OF_PERICENTER = 84.5684
MEAN_ANOMALY   = 275.7600

EPHEMERIS_TYPE = 0
CLASSIFICATION_TYPE = U
NORAD_CAT_ID   = 22626
ELEMENT_SET_NO = 999
REV_AT_EPOCH   = 77419
BSTAR          = .36541289E-3
MEAN_MOTION_DOT = .4174E-4
MEAN_MOTION_DDOT = 0

CCSDS_OMM_VERS = 2.0
CREATION_DATE  = 
ORIGINATOR     = 

OBJECT_NAME    = SL-16 R/B
OBJECT_ID      = 1993-059B
CENTER_NAME    = EARTH
REF_FRAME      = TEME
TIME_SYSTEM    = UTC
MEAN_ELEMENT_THEORY = SGP/SGP4

EPOCH          = 2026-01-27T07:52:15.250656
MEAN_MOTION    = 14.17223475
ECCENTRICITY   = .00195766
INCLINATION    = 70.9903
RA_OF_ASC_NODE = 98.3547
ARG_OF_PERICENTER = 272.8200
MEAN_ANOMALY   = 87.0683

EPHEMERIS_TYPE = 0
CLASSIFICATION_TYPE = U
NORAD_CAT_ID   = 22803
ELEMENT_SET_NO = 999
REV_AT_EPOCH   = 67367
BSTAR          = -.45169683E-4
MEAN_MOTION_DOT = -.14E-5
MEAN_MOTION_DDOT = 0

CCSDS_OMM_VERS = 2.0
CREATION_DATE  = 
ORIGINATOR     = 

OBJECT_NAME    = ARIANE 40 R/B
OBJECT_ID      = 1993-061H
CENTER_NAME    = EARTH
REF_FRAME      = TEME
TIME_SYSTEM    = UTC
MEAN_ELEMENT_THEORY = SGP/SGP4

EPOCH          = 2026-01-27T03:34:44.368032
MEAN_MOTION    = 14.32837296
ECCENTRICITY   = .00114993
INCLINATION    = 98.5004
RA_OF_ASC_NODE = 96.8382
ARG_OF_PERICENTER = 51.6311
MEAN_ANOMALY   = 308.5904

EPHEMERIS_TYPE = 0
CLASSIFICATION_TYPE = U
NORAD_CAT_ID   = 22830
ELEMENT_SET_NO = 999
REV_AT_EPOCH   = 68815
BSTAR          = .16792285E-3
MEAN_MOTION_DOT = .415E-5
MEAN_MOTION_DDOT = 0

CCSDS_OMM_VERS = 2.0
CREATION_DATE  = 
ORIGINATOR     = 

OBJECT_NAME    = COSMOS 2278
OBJECT_ID      = 1994-023A
CENTER_NAME    = EARTH
REF_FRAME      = TEME
TIME_SYSTEM    = UTC
MEAN_ELEMENT_THEORY = SGP/SGP4

EPOCH          = 2026-01-26T15:47:56.700096
MEAN_MOTION    = 14.14367025
ECCENTRICITY   = .0006286
INCLINATION    = 71.0527
RA_OF_ASC_NODE = 263.0357
ARG_OF_PERICENTER = 93.3673
MEAN_ANOMALY   = 266.8169

EPHEMERIS_TYPE = 0
CLASSIFICATION_TYPE = U
NORAD_CAT_ID   = 23087
ELEMENT_SET_NO = 999
REV_AT_EPOCH   = 63886
BSTAR          = -.26156E-4
MEAN_MOTION_DOT = -.97E-6
MEAN_MOTION_DDOT = 0

CCSDS_OMM_VERS = 2.0
CREATION_DATE  = 
ORIGINATOR     = 

OBJECT_NAME    = SL-16 R/B
OBJECT_ID      = 1994-023B
CENTER_NAME    = EARTH
REF_FRAME      = TEME
TIME_SYSTEM    = UTC
MEAN_ELEMENT_THEORY = SGP/SGP4

EPOCH          = 2026-01-26T19:04:07.110336
MEAN_MOTION    = 14.15006637
ECCENTRICITY   = .0004202
INCLINATION    = 71.0002
RA_OF_ASC_NODE = 158.8705
ARG_OF_PERICENTER = 323.7598
MEAN_ANOMALY   = 36.3240

EPHEMERIS_TYPE = 0
CLASSIFICATION_TYPE = U
NORAD_CAT_ID   = 23088
ELEMENT_SET_NO = 999
REV_AT_EPOCH   = 64016
BSTAR          = -.44969006E-4
MEAN_MOTION_DOT = -.135E-5
MEAN_MOTION_DDOT = 0

CCSDS_OMM_VERS = 2.0
CREATION_DATE  = 
ORIGINATOR     = 

OBJECT_NAME    = SL-16 R/B
OBJECT_ID      = 1994-074B
CENTER_NAME    = EARTH
REF_FRAME      = TEME
TIME_SYSTEM    = UTC
MEAN_ELEMENT_THEORY = SGP/SGP4

EPOCH          = 2026-01-27T07:44:09.873600
MEAN_MOTION    = 14.79355206
ECCENTRICITY   = .0006674
INCLINATION    = 97.7160
RA_OF_ASC_NODE = 59.8062
ARG_OF_PERICENTER = 9.1543
MEAN_ANOMALY   = 1.3884

EPHEMERIS_TYPE = 0
CLASSIFICATION_TYPE = U
NORAD_CAT_ID   = 23343
ELEMENT_SET_NO = 999
REV_AT_EPOCH   = 68113
BSTAR          = .12474335E-3
MEAN_MOTION_DOT = .88E-5
MEAN_MOTION_DDOT = 0

CCSDS_OMM_VERS = 2.0
CREATION_DATE  = 
ORIGINATOR     = 

OBJECT_NAME    = SL-16 R/B
OBJECT_ID      = 1994-077B
CENTER_NAME    = EARTH
REF_FRAME      = TEME
TIME_SYSTEM    = UTC
MEAN_ELEMENT_THEORY = SGP/SGP4

EPOCH          = 2026-01-27T06:53:30.030432
MEAN_MOTION    = 14.15558661
ECCENTRICITY   = .00047901
INCLINATION    = 70.9826
RA_OF_ASC_NODE = 79.5947
ARG_OF_PERICENTER = 249.4062
MEAN_ANOMALY   = 110.6548

EPHEMERIS_TYPE = 0
CLASSIFICATION_TYPE = U
NORAD_CAT_ID   = 23405
ELEMENT_SET_NO = 999
REV_AT_EPOCH   = 61037
BSTAR          = -.56829102E-4
MEAN_MOTION_DOT = -.159E-5
MEAN_MOTION_DDOT = 0

CCSDS_OMM_VERS = 2.0
CREATION_DATE  = 
ORIGINATOR     = 

OBJECT_NAME    = ARIANE 40+ R/B
OBJECT_ID      = 1995-021B
CENTER_NAME    = EARTH
REF_FRAME      = TEME
TIME_SYSTEM    = UTC
MEAN_ELEMENT_THEORY = SGP/SGP4

EPOCH          = 2026-01-27T04:30:46.438272
MEAN_MOTION    = 14.39739594
ECCENTRICITY   = .0005631
INCLINATION    = 98.4579
RA_OF_ASC_NODE = 99.2150
ARG_OF_PERICENTER = 264.6738
MEAN_ANOMALY   = 154.1221

EPHEMERIS_TYPE = 0
CLASSIFICATION_TYPE = U
NORAD_CAT_ID   = 23561
ELEMENT_SET_NO = 999
REV_AT_EPOCH   = 61327
BSTAR          = .19202475E-3
MEAN_MOTION_DOT = .558E-5
MEAN_MOTION_DDOT = 0

CCSDS_OMM_VERS = 2.0
CREATION_DATE  = 
ORIGINATOR     = 

OBJECT_NAME    = SL-16 R/B
OBJECT_ID      = 1995-058B
CENTER_NAME    = EARTH
REF_FRAME      = TEME
TIME_SYSTEM    = UTC
MEAN_ELEMENT_THEORY = SGP/SGP4

EPOCH          = 2026-01-27T01:55:20.011872
MEAN_MOTION    = 14.15488115
ECCENTRICITY   = .00130052
INCLINATION    = 71.0199
RA_OF_ASC_NODE = 267.6148
ARG_OF_PERICENTER = 193.1139
MEAN_ANOMALY   = 166.9648

EPHEMERIS_TYPE = 0
CLASSIFICATION_TYPE = U
NORAD_CAT_ID   = 23705
ELEMENT_SET_NO = 999
REV_AT_EPOCH   = 56196
BSTAR          = -.51670179E-4
MEAN_MOTION_DOT = -.149E-5
MEAN_MOTION_DDOT = 0

CCSDS_OMM_VERS = 2.0
CREATION_DATE  = 
ORIGINATOR     = 

OBJECT_NAME    = SL-16 R/B
OBJECT_ID      = 1996-051B
CENTER_NAME    = EARTH
REF_FRAME      = TEME
TIME_SYSTEM    = UTC
MEAN_ELEMENT_THEORY = SGP/SGP4

EPOCH          = 2026-01-27T02:21:07.905024
MEAN_MOTION    = 14.12403915
ECCENTRICITY   = .00183717
INCLINATION    = 70.7574
RA_OF_ASC_NODE = 263.2758
ARG_OF_PERICENTER = 205.0709
MEAN_ANOMALY   = 154.9521

EPHEMERIS_TYPE = 0
CLASSIFICATION_TYPE = U
NORAD_CAT_ID   = 24298
ELEMENT_SET_NO = 999
REV_AT_EPOCH   = 51577
BSTAR          = .63897251E-4
MEAN_MOTION_DOT = .69E-6
MEAN_MOTION_DDOT = 0

CCSDS_OMM_VERS = 2.0
CREATION_DATE  = 
ORIGINATOR     = 

OBJECT_NAME    = ORBVIEW 2 (SEASTAR)
OBJECT_ID      = 1997-037A
CENTER_NAME    = EARTH
REF_FRAME      = TEME
TIME_SYSTEM    = UTC
MEAN_ELEMENT_THEORY = SGP/SGP4

EPOCH          = 2026-01-27T07:02:11.217696
MEAN_MOTION    = 14.35460568
ECCENTRICITY   = .00024428
INCLINATION    = 98.8497
RA_OF_ASC_NODE = 190.5249
ARG_OF_PERICENTER = 159.1491
MEAN_ANOMALY   = 200.9794

EPHEMERIS_TYPE = 0
CLASSIFICATION_TYPE = U
NORAD_CAT_ID   = 24883
ELEMENT_SET_NO = 999
REV_AT_EPOCH   = 50253
BSTAR          = .23120355E-3
MEAN_MOTION_DOT = .618E-5
MEAN_MOTION_DDOT = 0

